ONEWEB-0018             
1 45434U 20020L   24194.46463245 -.00000286  00000+0 -84322-3 0  9997
2 45434  87.8973 161.3236 0002090  81.3458 278.7907 13.11415350210261
ONEWEB-0083             
1 45435U 20020M   24194.60706138  .00000254  00000+0  68209-3 0  9994
2 45435  87.8976 161.2769 0002014  83.5743 276.5614 13.11415446210326
ONEWEB-0095             
1 45436U 20020N   24194.59872461  .00000499  00000+0  13731-2 0  9996
2 45436  87.8973 161.3128 0001972 108.6357 251.4986 13.11414688210327
ONEWEB-0092             
1 45437U 20020P   24194.41292654 -.00000189  00000+0 -56852-3 0  9998
2 45437  87.8978 161.3314 0002138  93.0004 267.1369 13.11418274210415
ONEWEB-0085             
1 45438U 20020Q   24194.60027979  .00000482  00000+0  13250-2 0  9994
2 45438  87.8976 161.3020 0002134  81.1706 278.9664 13.11416407210325
ONEWEB-0096             
1 45439U 20020R   24194.45615894  .00000095  00000+0  23101-3 0  9994
2 45439  87.8973 161.3010 0002239  79.8148 280.3233 13.11415013210299
ONEWEB-0037             
1 45440U 20020S   24194.43752003  .00000597  00000+0  16474-2 0  9999
2 45440  87.8971 161.2872 0002107  88.3698 271.7672 13.11417226210326
ONEWEB-0042             
1 45441U 20020T   24194.59844588  .00000523  00000+0  14404-2 0  9997
2 45441  87.8974 161.2867 0002165  83.2820 276.8555 13.11416345210315
