<?xml version="1.0" encoding="UTF-8"?>
<ndm xmlns:xsi="http://www.w3.org/2001/XMLSchema-instance" xsi:noNamespaceSchemaLocation="https://sanaregistry.org/r/ndmxml_unqualified/ndmxml-2.0.0-master-2.0.xsd">
<omm id="CCSDS_OMM_VERS" version="2.0">
<header><CREATION_DATE/><ORIGINATOR/></header><body><segment><metadata><OBJECT_NAME>ONEWEB-0018</OBJECT_NAME><OBJECT_ID>2020-020L</OBJECT_ID><CENTER_NAME>EARTH</CENTER_NAME><REF_FRAME>TEME</REF_FRAME><TIME_SYSTEM>UTC</TIME_SYSTEM><MEAN_ELEMENT_THEORY>SGP4</MEAN_ELEMENT_THEORY></metadata><data><meanElements><EPOCH>2024-07-12T11:09:04.243680</EPOCH><MEAN_MOTION>13.11415350</MEAN_MOTION><ECCENTRICITY>.000209</ECCENTRICITY><INCLINATION>87.8973</INCLINATION><RA_OF_ASC_NODE>161.3236</RA_OF_ASC_NODE><ARG_OF_PERICENTER>81.3458</ARG_OF_PERICENTER><MEAN_ANOMALY>278.7907</MEAN_ANOMALY></meanElements><tleParameters><EPHEMERIS_TYPE>0</EPHEMERIS_TYPE><CLASSIFICATION_TYPE>U</CLASSIFICATION_TYPE><NORAD_CAT_ID>45434</NORAD_CAT_ID><ELEMENT_SET_NO>999</ELEMENT_SET_NO><REV_AT_EPOCH>21026</REV_AT_EPOCH><BSTAR>-.84322E-3</BSTAR><MEAN_MOTION_DOT>-.286E-5</MEAN_MOTION_DOT><MEAN_MOTION_DDOT>0</MEAN_MOTION_DDOT></tleParameters></data></segment></body></omm>
<omm id="CCSDS_OMM_VERS" version="2.0">
<header><CREATION_DATE/><ORIGINATOR/></header><body><segment><metadata><OBJECT_NAME>ONEWEB-0083</OBJECT_NAME><OBJECT_ID>2020-020M</OBJECT_ID><CENTER_NAME>EARTH</CENTER_NAME><REF_FRAME>TEME</REF_FRAME><TIME_SYSTEM>UTC</TIME_SYSTEM><MEAN_ELEMENT_THEORY>SGP4</MEAN_ELEMENT_THEORY></metadata><data><meanElements><EPOCH>2024-07-12T14:34:10.103232</EPOCH><MEAN_MOTION>13.11415446</MEAN_MOTION><ECCENTRICITY>.0002014</ECCENTRICITY><INCLINATION>87.8976</INCLINATION><RA_OF_ASC_NODE>161.2769</RA_OF_ASC_NODE><ARG_OF_PERICENTER>83.5743</ARG_OF_PERICENTER><MEAN_ANOMALY>276.5614</MEAN_ANOMALY></meanElements><tleParameters><EPHEMERIS_TYPE>0</EPHEMERIS_TYPE><CLASSIFICATION_TYPE>U</CLASSIFICATION_TYPE><NORAD_CAT_ID>45435</NORAD_CAT_ID><ELEMENT_SET_NO>999</ELEMENT_SET_NO><REV_AT_EPOCH>21032</REV_AT_EPOCH><BSTAR>.68209E-3</BSTAR><MEAN_MOTION_DOT>.254E-5</MEAN_MOTION_DOT><MEAN_MOTION_DDOT>0</MEAN_MOTION_DDOT></tleParameters></data></segment></body></omm>
<omm id="CCSDS_OMM_VERS" version="2.0">
<header><CREATION_DATE/><ORIGINATOR/></header><body><segment><metadata><OBJECT_NAME>ONEWEB-0095</OBJECT_NAME><OBJECT_ID>2020-020N</OBJECT_ID><CENTER_NAME>EARTH</CENTER_NAME><REF_FRAME>TEME</REF_FRAME><TIME_SYSTEM>UTC</TIME_SYSTEM><MEAN_ELEMENT_THEORY>SGP4</MEAN_ELEMENT_THEORY></metadata><data><meanElements><EPOCH>2024-07-12T14:22:09.806304</EPOCH><MEAN_MOTION>13.11414688</MEAN_MOTION><ECCENTRICITY>.0001972</ECCENTRICITY><INCLINATION>87.8973</INCLINATION><RA_OF_ASC_NODE>161.3128</RA_OF_ASC_NODE><ARG_OF_PERICENTER>108.6357</ARG_OF_PERICENTER><MEAN_ANOMALY>251.4986</MEAN_ANOMALY></meanElements><tleParameters><EPHEMERIS_TYPE>0</EPHEMERIS_TYPE><CLASSIFICATION_TYPE>U</CLASSIFICATION_TYPE><NORAD_CAT_ID>45436</NORAD_CAT_ID><ELEMENT_SET_NO>999</ELEMENT_SET_NO><REV_AT_EPOCH>21032</REV_AT_EPOCH><BSTAR>.13731E-2</BSTAR><MEAN_MOTION_DOT>.499E-5</MEAN_MOTION_DOT><MEAN_MOTION_DDOT>0</MEAN_MOTION_DDOT></tleParameters></data></segment></body></omm>
<omm id="CCSDS_OMM_VERS" version="2.0">
<header><CREATION_DATE/><ORIGINATOR/></header><body><segment><metadata><OBJECT_NAME>ONEWEB-0092</OBJECT_NAME><OBJECT_ID>2020-020P</OBJECT_ID><CENTER_NAME>EARTH</CENTER_NAME><REF_FRAME>TEME</REF_FRAME><TIME_SYSTEM>UTC</TIME_SYSTEM><MEAN_ELEMENT_THEORY>SGP4</MEAN_ELEMENT_THEORY></metadata><data><meanElements><EPOCH>2024-07-12T09:54:36.853056</EPOCH><MEAN_MOTION>13.11418274</MEAN_MOTION><ECCENTRICITY>.0002138</ECCENTRICITY><INCLINATION>87.8978</INCLINATION><RA_OF_ASC_NODE>161.3314</RA_OF_ASC_NODE><ARG_OF_PERICENTER>93.0004</ARG_OF_PERICENTER><MEAN_ANOMALY>267.1369</MEAN_ANOMALY></meanElements><tleParameters><EPHEMERIS_TYPE>0</EPHEMERIS_TYPE><CLASSIFICATION_TYPE>U</CLASSIFICATION_TYPE><NORAD_CAT_ID>45437</NORAD_CAT_ID><ELEMENT_SET_NO>999</ELEMENT_SET_NO><REV_AT_EPOCH>21041</REV_AT_EPOCH><BSTAR>-.56852E-3</BSTAR><MEAN_MOTION_DOT>-.189E-5</MEAN_MOTION_DOT><MEAN_MOTION_DDOT>0</MEAN_MOTION_DDOT></tleParameters></data></segment></body></omm>
<omm id="CCSDS_OMM_VERS" version="2.0">
<header><CREATION_DATE/><ORIGINATOR/></header><body><segment><metadata><OBJECT_NAME>ONEWEB-0085</OBJECT_NAME><OBJECT_ID>2020-020Q</OBJECT_ID><CENTER_NAME>EARTH</CENTER_NAME><REF_FRAME>TEME</REF_FRAME><TIME_SYSTEM>UTC</TIME_SYSTEM><MEAN_ELEMENT_THEORY>SGP4</MEAN_ELEMENT_THEORY></metadata><data><meanElements><EPOCH>2024-07-12T14:24:24.173856</EPOCH><MEAN_MOTION>13.11416407</MEAN_MOTION><ECCENTRICITY>.0002134</ECCENTRICITY><INCLINATION>87.8976</INCLINATION><RA_OF_ASC_NODE>161.3020</RA_OF_ASC_NODE><ARG_OF_PERICENTER>81.1706</ARG_OF_PERICENTER><MEAN_ANOMALY>278.9664</MEAN_ANOMALY></meanElements><tleParameters><EPHEMERIS_TYPE>0</EPHEMERIS_TYPE><CLASSIFICATION_TYPE>U</CLASSIFICATION_TYPE><NORAD_CAT_ID>45438</NORAD_CAT_ID><ELEMENT_SET_NO>999</ELEMENT_SET_NO><REV_AT_EPOCH>21032</REV_AT_EPOCH><BSTAR>.1325E-2</BSTAR><MEAN_MOTION_DOT>.482E-5</MEAN_MOTION_DOT><MEAN_MOTION_DDOT>0</MEAN_MOTION_DDOT></tleParameters></data></segment></body></omm>
<omm id="CCSDS_OMM_VERS" version="2.0">
<header><CREATION_DATE/><ORIGINATOR/></header><body><segment><metadata><OBJECT_NAME>ONEWEB-0096</OBJECT_NAME><OBJECT_ID>2020-020R</OBJECT_ID><CENTER_NAME>EARTH</CENTER_NAME><REF_FRAME>TEME</REF_FRAME><TIME_SYSTEM>UTC</TIME_SYSTEM><MEAN_ELEMENT_THEORY>SGP4</MEAN_ELEMENT_THEORY></metadata><data><meanElements><EPOCH>2024-07-12T10:56:52.132416</EPOCH><MEAN_MOTION>13.11415013</MEAN_MOTION><ECCENTRICITY>.0002239</ECCENTRICITY><INCLINATION>87.8973</INCLINATION><RA_OF_ASC_NODE>161.3010</RA_OF_ASC_NODE><ARG_OF_PERICENTER>79.8148</ARG_OF_PERICENTER><MEAN_ANOMALY>280.3233</MEAN_ANOMALY></meanElements><tleParameters><EPHEMERIS_TYPE>0</EPHEMERIS_TYPE><CLASSIFICATION_TYPE>U</CLASSIFICATION_TYPE><NORAD_CAT_ID>45439</NORAD_CAT_ID><ELEMENT_SET_NO>999</ELEMENT_SET_NO><REV_AT_EPOCH>21029</REV_AT_EPOCH><BSTAR>.23101E-3</BSTAR><MEAN_MOTION_DOT>.95E-6</MEAN_MOTION_DOT><MEAN_MOTION_DDOT>0</MEAN_MOTION_DDOT></tleParameters></data></segment></body></omm>
<omm id="CCSDS_OMM_VERS" version="2.0">
<header><CREATION_DATE/><ORIGINATOR/></header><body><segment><metadata><OBJECT_NAME>ONEWEB-0037</OBJECT_NAME><OBJECT_ID>2020-020S</OBJECT_ID><CENTER_NAME>EARTH</CENTER_NAME><REF_FRAME>TEME</REF_FRAME><TIME_SYSTEM>UTC</TIME_SYSTEM><MEAN_ELEMENT_THEORY>SGP4</MEAN_ELEMENT_THEORY></metadata><data><meanElements><EPOCH>2024-07-12T10:30:01.730592</EPOCH><MEAN_MOTION>13.11417226</MEAN_MOTION><ECCENTRICITY>.0002107</ECCENTRICITY><INCLINATION>87.8971</INCLINATION><RA_OF_ASC_NODE>161.2872</RA_OF_ASC_NODE><ARG_OF_PERICENTER>88.3698</ARG_OF_PERICENTER><MEAN_ANOMALY>271.7672</MEAN_ANOMALY></meanElements><tleParameters><EPHEMERIS_TYPE>0</EPHEMERIS_TYPE><CLASSIFICATION_TYPE>U</CLASSIFICATION_TYPE><NORAD_CAT_ID>45440</NORAD_CAT_ID><ELEMENT_SET_NO>999</ELEMENT_SET_NO><REV_AT_EPOCH>21032</REV_AT_EPOCH><BSTAR>.16474E-2</BSTAR><MEAN_MOTION_DOT>.597E-5</MEAN_MOTION_DOT><MEAN_MOTION_DDOT>0</MEAN_MOTION_DDOT></tleParameters></data></segment></body></omm>
<omm id="CCSDS_OMM_VERS" version="2.0">
<header><CREATION_DATE/><ORIGINATOR/></header><body><segment><metadata><OBJECT_NAME>ONEWEB-0042</OBJECT_NAME><OBJECT_ID>2020-020T</OBJECT_ID><CENTER_NAME>EARTH</CENTER_NAME><REF_FRAME>TEME</REF_FRAME><TIME_SYSTEM>UTC</TIME_SYSTEM><MEAN_ELEMENT_THEORY>SGP4</MEAN_ELEMENT_THEORY></metadata><data><meanElements><EPOCH>2024-07-12T14:21:45.724032</EPOCH><MEAN_MOTION>13.11416345</MEAN_MOTION><ECCENTRICITY>.0002165</ECCENTRICITY><INCLINATION>87.8974</INCLINATION><RA_OF_ASC_NODE>161.2867</RA_OF_ASC_NODE><ARG_OF_PERICENTER>83.2820</ARG_OF_PERICENTER><MEAN_ANOMALY>276.8555</MEAN_ANOMALY></meanElements><tleParameters><EPHEMERIS_TYPE>0</EPHEMERIS_TYPE><CLASSIFICATION_TYPE>U</CLASSIFICATION_TYPE><NORAD_CAT_ID>45441</NORAD_CAT_ID><ELEMENT_SET_NO>999</ELEMENT_SET_NO><REV_AT_EPOCH>21031</REV_AT_EPOCH><BSTAR>.14404E-2</BSTAR><MEAN_MOTION_DOT>.523E-5</MEAN_MOTION_DOT><MEAN_MOTION_DDOT>0</MEAN_MOTION_DDOT></tleParameters></data></segment></body></omm>

</ndm>
